OBJECT_NAME,OBJECT_ID,EPOCH,MEAN_MOTION,ECCENTRICITY,INCLINATION,RA_OF_ASC_NODE,ARG_OF_PERICENTER,MEAN_ANOMALY,EPHEMERIS_TYPE,CLASSIFICATION_TYPE,NORAD_CAT_ID,ELEMENT_SET_NO,REV_AT_EPOCH,BSTAR,MEAN_MOTION_DOT,MEAN_MOTION_DDOT
LEMUR-2-ARIANNA,2025-009CU,2026-06-06T12:02:07.855584,15.02323221,.00030243,97.6878,238.9711,147.7834,212.3576,0,U,62699,999,7595,.87545699E-3,.11523E-3,0
LEMUR-2-ALISIA,2025-009DB,2026-06-06T11:33:16.466112,15.02615589,.00007317,97.6967,239.7242,190.8641,169.2568,0,U,62706,999,9855,.81238815E-3,.10769E-3,0
LEMUR-2-ROUNDTRIPPER,2025-009DG,2026-06-06T12:19:04.856160,15.03609690,.00042978,97.7231,240.2091,165.8436,194.2910,0,U,62711,999,7602,.90490045E-3,.12328E-3,0
LEMUR-2-MYNAMEISJEFF,2025-009DH,2026-06-06T12:16:54.723072,15.03625946,.00025646,97.7283,240.5819,196.4260,163.6882,0,U,62712,999,7602,.87871936E-3,.11973E-3,0
LEMUR-2-LEIA-PHILIP,2025-052AN,2026-06-06T12:15:36.033408,14.97284452,.00021004,97.6844,49.6407,259.0251,101.0734,0,U,63246,999,6707,.20039222E-3,.2265E-4,0
LEMUR-2-LIA-MARTIN,2025-052AQ,2026-06-06T10:51:22.249440,14.97710585,.00021748,97.6902,50.0420,178.8869,181.2358,0,U,63248,999,6707,.60898001E-3,.7083E-4,0
LEMUR-2-DELOITTE-1,2025-052BB,2026-06-06T10:15:18.509184,14.97522116,.00022488,97.6918,50.3469,117.5545,242.5906,0,U,63259,999,6708,.41389192E-3,.477E-4,0
LEMUR-2-EMERSONROSE,2025-052BD,2026-06-06T00:18:07.504704,14.99006061,.0002692,97.6909,50.4760,77.0985,283.0538,0,U,63261,999,6706,.36014E-3,.4306E-4,0
LEMUR-2-MARACHE-FRAN,2025-052BE,2026-06-06T12:41:49.570080,14.99987228,.00063129,97.6942,51.2783,56.8776,303.3053,0,U,63262,999,6716,.64469428E-3,.7963E-4,0
LEMUR-2-THEFALCONER,2025-052BG,2026-06-06T10:51:10.104192,14.97315480,.00035986,97.6873,50.0023,64.3821,295.7772,0,U,63264,999,6708,.48040788E-3,.5518E-4,0
LEMUR-2-UNTITLED-SC,2025-061A,2026-06-06T10:39:15.440544,15.13397992,.00172014,97.5633,132.8851,305.5554,54.4073,0,U,63351,999,6596,.22591002E-3,.3979E-4,0
LEMUR-2-ESPERANZA,2025-061B,2026-06-05T21:25:39.120096,15.13487292,.0016932,97.5639,132.4290,307.0748,52.8934,0,U,63352,999,6588,.26875E-3,.4758E-4,0
LEMUR-2-KREMPEL-BRO2,2025-061C,2026-06-06T10:50:35.227104,15.13925794,.00175761,97.5690,133.5033,296.6414,63.3017,0,U,63353,999,6598,.2464606E-3,.4414E-4,0
LEMUR-2-THERMORAPTOR,2025-061D,2026-06-06T04:04:52.612896,15.14001058,.0017353,97.5693,133.2970,296.5843,63.3609,0,U,63354,999,6594,.26919E-3,.4837E-4,0
LEMUR-2-NEUROSPICY,2025-061E,2026-06-06T11:21:06.959808,15.14118594,.00152344,97.5621,133.2328,299.8235,60.1481,0,U,63355,999,6599,.29118599E-3,.5251E-4,0
LEMUR-2-TILLINFINITY,2025-061F,2026-06-06T10:42:43.476192,15.14704766,.00162558,97.5606,133.4892,286.5257,73.4189,0,U,63356,999,6601,.23850938E-3,.4362E-4,0
LEMUR-2-KREMPEL-BRO1,2025-061G,2026-06-06T03:41:58.586784,15.14507640,.0016966,97.5606,133.1179,288.7998,71.1393,0,U,63357,999,6596,.28799E-3,.5254E-4,0
LEMUR-2-LANGER2SPACE,2025-061H,2026-06-06T04:16:58.264032,15.14205296,.0015055,97.5612,132.9604,299.1416,60.8308,0,U,63358,999,6595,.24285E-3,.4378E-4,0
LEMUR-2-BALTO,2025-052BH,2026-06-06T10:43:31.159488,14.99969570,.00065073,97.6877,51.1835,84.6270,275.5696,0,U,63395,999,6715,.59016671E-3,.7281E-4,0
LEMUR-2-KRISH,2025-135AK,2026-06-06T13:46:58.576512,14.96106318,.00011283,97.7727,272.5262,103.2930,256.8417,0,U,64561,999,5233,.55630226E-3,.6201E-4,0
LEMUR-2-HUBBLE-4,2025-135AP,2026-06-06T14:46:12.567072,14.93168483,.00017701,97.7688,271.6508,3.7631,356.3601,0,U,64565,999,5229,.17466442E-3,.1767E-4,0
LEMUR-2-SEJONG-2,2025-135BL,2026-06-06T14:35:15.952992,14.96615421,.00046827,97.7683,272.7027,24.7769,335.3677,0,U,64586,999,5236,.57489288E-3,.6496E-4,0
LEMUR-2-HUBBLE-5,2025-135BT,2026-06-06T13:49:37.053984,14.94102503,.00059689,97.7708,272.2283,28.3926,331.7618,0,U,64840,999,5232,.15856129E-3,.1638E-4,0
LEMUR-2-KARENDARRELL,2025-135BU,2026-06-06T13:53:04.555680,14.99957693,.00090212,97.7674,273.8067,243.4518,116.5781,0,U,64841,999,5242,.82207434E-3,.10168E-3,0
LEMUR-2-LUCILLE-ROSE,2025-135BV,2026-06-05T21:15:11.799936,15.00006001,.00106491,97.7773,273.1201,327.0038,33.0519,0,U,65403,999,4694,.79533409E-3,.9851E-4,0
LEMUR-2-AFFIE-WAUWIE,2025-248C,2026-06-05T08:17:02.238720,15.26809642,.00091039,45.3864,179.1302,8.2322,351.8715,0,U,66295,999,3278,.47373351E-3,.12446E-3,0
LEMUR-2-DEANANDMAEVE,2025-276N,2026-06-06T10:48:10.221984,15.19599967,.00067064,97.4208,231.1049,49.1401,311.0414,0,U,66678,999,2878,.4067415E-3,.86E-4,0
LEMUR-2-STAS-GORBUK,2025-276W,2026-06-06T11:05:34.286496,15.19266623,.00061813,97.4244,231.1727,49.2263,310.9508,0,U,66686,999,2878,.35382637E-3,.7399E-4,0
LEMUR-2-TEODOR,2025-276DG,2026-06-06T10:59:07.479744,15.20933331,.00018361,97.4146,231.3909,124.4913,235.6496,0,U,66768,999,2881,.32923324E-3,.722E-4,0
