LEMUR-2-ARIANNA         
1 62699U 25009CU  26157.50147981  .00011523  00000+0  87546-3 0  9998
2 62699  97.6878 238.9711 0003024 147.7834 212.3576 15.02323221 75956
LEMUR-2-ALISIA          
1 62706U 25009DB  26157.48144058  .00010769  00000+0  81239-3 0  9990
2 62706  97.6967 239.7242 0000731 190.8641 169.2568 15.02615589 98552
LEMUR-2-ROUNDTRIPPER    
1 62711U 25009DG  26157.51325065  .00012328  00000+0  90490-3 0  9991
2 62711  97.7231 240.2091 0004297 165.8436 194.2910 15.03609690 76021
LEMUR-2-MYNAMEISJEFF    
1 62712U 25009DH  26157.51174448  .00011973  00000+0  87872-3 0  9994
2 62712  97.7283 240.5819 0002564 196.4260 163.6882 15.03625946 76020
LEMUR-2-LEIA-PHILIP     
1 63246U 25052AN  26157.51083372  .00002265  00000+0  20039-3 0  9996
2 63246  97.6844  49.6407 0002100 259.0251 101.0734 14.97284452 67070
LEMUR-2-LIA-MARTIN      
1 63248U 25052AQ  26157.45234085  .00007083  00000+0  60898-3 0  9990
2 63248  97.6902  50.0420 0002174 178.8869 181.2358 14.97710585 67075
LEMUR-2-DELOITTE-1      
1 63259U 25052BB  26157.42729756  .00004770  00000+0  41389-3 0  9997
2 63259  97.6918  50.3469 0002248 117.5545 242.5906 14.97522116 67085
LEMUR-2-EMERSONROSE     
1 63261U 25052BD  26157.01258686  .00004306  00000+0  36014-3 0  9998
2 63261  97.6909  50.4760 0002692  77.0985 283.0538 14.99006061 67061
LEMUR-2-MARACHE-FRAN    
1 63262U 25052BE  26157.52904595  .00007963  00000+0  64469-3 0  9999
2 63262  97.6942  51.2783 0006312  56.8776 303.3053 14.99987228 67161
LEMUR-2-THEFALCONER     
1 63264U 25052BG  26157.45220028  .00005518  00000+0  48041-3 0  9997
2 63264  97.6873  50.0023 0003598  64.3821 295.7772 14.97315480 67084
LEMUR-2-UNTITLED-SC     
1 63351U 25061A   26157.44392871  .00003979  00000+0  22591-3 0  9990
2 63351  97.5633 132.8851 0017201 305.5554  54.4073 15.13397992 65967
LEMUR-2-ESPERANZA       
1 63352U 25061B   26156.89281389  .00004758  00000+0  26875-3 0  9995
2 63352  97.5639 132.4290 0016932 307.0748  52.8934 15.13487292 65881
LEMUR-2-KREMPEL-BRO2    
1 63353U 25061C   26157.45179661  .00004414  00000+0  24646-3 0  9991
2 63353  97.5690 133.5033 0017576 296.6414  63.3017 15.13925794 65988
LEMUR-2-THERMORAPTOR    
1 63354U 25061D   26157.17005339  .00004837  00000+0  26919-3 0  9995
2 63354  97.5693 133.2970 0017353 296.5843  63.3609 15.14001058 65949
LEMUR-2-NEUROSPICY      
1 63355U 25061E   26157.47299722  .00005251  00000+0  29119-3 0  9996
2 63355  97.5621 133.2328 0015234 299.8235  60.1481 15.14118594 65997
LEMUR-2-TILLINFINITY    
1 63356U 25061F   26157.44633653  .00004362  00000+0  23851-3 0  9998
2 63356  97.5606 133.4892 0016255 286.5257  73.4189 15.14704766 66018
LEMUR-2-KREMPEL-BRO1    
1 63357U 25061G   26157.15415031  .00005254  00000+0  28799-3 0  9992
2 63357  97.5606 133.1179 0016966 288.7998  71.1393 15.14507640 65966
LEMUR-2-LANGER2SPACE    
1 63358U 25061H   26157.17845213  .00004378  00000+0  24285-3 0  9996
2 63358  97.5612 132.9604 0015055 299.1416  60.8308 15.14205296 65955
LEMUR-2-BALTO           
1 63395U 25052BH  26157.44688842  .00007281  00000+0  59017-3 0  9997
2 63395  97.6877  51.1835 0006507  84.6270 275.5696 14.99969570 67158
LEMUR-2-KRISH           
1 64561U 25135AK  26157.57428908  .00006201  00000+0  55630-3 0  9992
2 64561  97.7727 272.5262 0001128 103.2930 256.8417 14.96106318 52334
LEMUR-2-HUBBLE-4        
1 64565U 25135AP  26157.61542323  .00001767  00000+0  17466-3 0  9996
2 64565  97.7688 271.6508 0001770   3.7631 356.3601 14.93168483 52296
LEMUR-2-SEJONG-2        
1 64586U 25135BL  26157.60782353  .00006496  00000+0  57489-3 0  9990
2 64586  97.7683 272.7027 0004682  24.7769 335.3677 14.96615421 52362
LEMUR-2-HUBBLE-5        
1 64840U 25135BT  26157.57612331  .00001638  00000+0  15856-3 0  9992
2 64840  97.7708 272.2283 0005968  28.3926 331.7618 14.94102503 52326
LEMUR-2-KARENDARRELL    
1 64841U 25135BU  26157.57852495  .00010168  00000+0  82207-3 0  9992
2 64841  97.7674 273.8067 0009021 243.4518 116.5781 14.99957693 52421
LEMUR-2-LUCILLE-ROSE    
1 65403U 25135BV  26156.88555324  .00009851  00000+0  79533-3 0  9996
2 65403  97.7773 273.1201 0010649 327.0038  33.0519 15.00006001 46946
LEMUR-2-AFFIE-WAUWIE    
1 66295U 25248C   26156.34516480  .00012446  00000+0  47373-3 0  9993
2 66295  45.3864 179.1302 0009103   8.2322 351.8715 15.26809642 32786
LEMUR-2-DEANANDMAEVE    
1 66678U 25276N   26157.45011831  .00008600  00000+0  40674-3 0  9996
2 66678  97.4208 231.1049 0006706  49.1401 311.0414 15.19599967 28783
LEMUR-2-STAS-GORBUK     
1 66686U 25276W   26157.46220239  .00007399  00000+0  35383-3 0  9995
2 66686  97.4244 231.1727 0006181  49.2263 310.9508 15.19266623 28781
LEMUR-2-TEODOR          
1 66768U 25276DG  26157.45772546  .00007220  00000+0  32923-3 0  9998
2 66768  97.4146 231.3909 0001836 124.4913 235.6496 15.20933331 28819
